{
    "links": {
        "self": "http://www.neowsapp.com/rest/v1/neo/3717051?api_key=iIulBulltgU6a56xZRHN4H3l9WmuAYTsLGpBGhQ2"
    },
    "id": "3717051",
    "neo_reference_id": "3717051",
    "name": "(2015 HT10)",
    "designation": "2015 HT10",
    "nasa_jpl_url": "http://ssd.jpl.nasa.gov/sbdb.cgi?sstr=3717051",
    "absolute_magnitude_h": 27.1,
    "estimated_diameter": {
        "kilometers": {
            "estimated_diameter_min": 0.0101054342,
            "estimated_diameter_max": 0.0225964377
        },
        "meters": {
            "estimated_diameter_min": 10.1054341542,
            "estimated_diameter_max": 22.5964377109
        },
        "miles": {
            "estimated_diameter_min": 0.0062792237,
            "estimated_diameter_max": 0.0140407711
        },
        "feet": {
            "estimated_diameter_min": 33.1543125905,
            "estimated_diameter_max": 74.1352966996
        }
    },
    "is_potentially_hazardous_asteroid": false,
    "close_approach_data": [
        {
            "close_approach_date": "2015-04-08",
            "close_approach_date_full": "2015-Apr-08 07:11",
            "epoch_date_close_approach": 1428477060000,
            "relative_velocity": {
                "kilometers_per_second": "8.8084108336",
                "kilometers_per_hour": "31710.2790009036",
                "miles_per_hour": "19703.5341936448"
            },
            "miss_distance": {
                "astronomical": "0.0536142583",
                "lunar": "20.8559464787",
                "kilometers": "8020578.843309821",
                "miles": "4983756.5933686898"
            },
            "orbiting_body": "Earth"
        }
    ],
    "orbital_data": {
        "orbit_id": "3",
        "orbit_determination_date": "2017-04-06 08:34:10",
        "first_observation_date": "2015-04-18",
        "last_observation_date": "2015-04-22",
        "data_arc_in_days": 4,
        "observations_used": 13,
        "orbit_uncertainty": "9",
        "minimum_orbit_intersection": ".0314576",
        "jupiter_tisserand_invariant": "3.362",
        "epoch_osculation": "2457132.5",
        "eccentricity": ".5608659651198024",
        "semi_major_axis": "2.297735843972452",
        "inclination": "3.972155454970024",
        "ascending_node_longitude": "25.08366802973918",
        "orbital_period": "1272.180034783378",
        "perihelion_distance": "1.009014012252479",
        "perihelion_argument": "147.1930469236761",
        "aphelion_distance": "3.586457675692425",
        "perihelion_time": "2457100.897045327476",
        "mean_anomaly": "8.942966695783655",
        "mean_motion": ".2829788160142754",
        "equinox": "J2000",
        "orbit_class": {
            "orbit_class_type": "APO",
            "orbit_class_description": "Near-Earth asteroid orbits which cross the Earth’s orbit similar to that of 1862 Apollo",
            "orbit_class_range": "a (semi-major axis) > 1.0 AU; q (perihelion) < 1.017 AU"
        }
    },
    "is_sentry_object": false
}